{"type": "FeatureCollection", "features": [ {"type": "Feature", "properties": {"norad_id": 66969, "name": "STARLINK-36149", "group": "last-30-days", "lat": -7.138466788063933, "lon": -80.93868240878275, "alt_km": 371.3501505394606, "timestamp": "2025-12-25T03:55:54.955647+00:00", "meta": {"OBJECT_NAME": "STARLINK-36149", "OBJECT_ID": "2025-288L", "EPOCH": "2025-12-24T20:00:01.000224", "MEAN_MOTION": 15.67390924, "ECCENTRICITY": 0.000142, "INCLINATION": 43.0004, "RA_OF_ASC_NODE": 93.3182, "ARG_OF_PERICENTER": 291.1669, "MEAN_ANOMALY": 193.0635, "EPHEMERIS_TYPE": 0, "CLASSIFICATION_TYPE": "U", "NORAD_CAT_ID": 66969, "ELEMENT_SET_NO": 999, "REV_AT_EPOCH": 377, "BSTAR": -0.020098, "MEAN_MOTION_DOT": -0.0197252, "MEAN_MOTION_DDOT": 0}, "tle": {"line1": "1 66969U 25288L   25358.83334491 -.01972520  00000+0 -20098-1 0  9996", "line2": "2 66969  43.0004  93.3182 0001420 291.1669 193.0635 15.67390924  3776"}}, "geometry": {"type": "Point", "coordinates": [-80.93868240878275, -7.138466788063933]}}, {"type": "Feature", "properties": {"norad_id": 66970, "name": "STARLINK-35703", "group": "last-30-days", "lat": -12.276241266719683, "lon": -75.17775490728364, "alt_km": 371.73371703027715, "timestamp": "2025-12-25T03:55:54.955659+00:00", "meta": {"OBJECT_NAME": "STARLINK-35703", "OBJECT_ID": "2025-288M", "EPOCH": "2025-12-24T20:00:01.000224", "MEAN_MOTION": 15.67400155, "ECCENTRICITY": 0.0001302, "INCLINATION": 43.0001, "RA_OF_ASC_NODE": 93.2987, "ARG_OF_PERICENTER": 289.5723, "MEAN_ANOMALY": 202.3275, "EPHEMERIS_TYPE": 0, "CLASSIFICATION_TYPE": "U", "NORAD_CAT_ID": 66970, "ELEMENT_SET_NO": 999, "REV_AT_EPOCH": 377, "BSTAR": -0.020296, "MEAN_MOTION_DOT": -0.01990148, "MEAN_MOTION_DDOT": 0}, "tle": {"line1": "1 66970U 25288M   25358.83334491 -.01990148  00000+0 -20296-1 0  9994", "line2": "2 66970  43.0001  93.2987 0001302 289.5723 202.3275 15.67400155  3770"}}, "geometry": {"type": "Point", "coordinates": [-75.17775490728364, -12.276241266719683]}}, {"type": "Feature", "properties": {"norad_id": 66971, "name": "STARLINK-35678", "group": "last-30-days", "lat": -1.9372680593697327, "lon": -86.56213378452209, "alt_km": 370.6844309372482, "timestamp": "2025-12-25T03:55:54.955670+00:00", "meta": {"OBJECT_NAME": "STARLINK-35678", "OBJECT_ID": "2025-288N", "EPOCH": "2025-12-24T20:00:01.000224", "MEAN_MOTION": 15.67384508, "ECCENTRICITY": 0.0001212, "INCLINATION": 43.0002, "RA_OF_ASC_NODE": 93.3383, "ARG_OF_PERICENTER": 283.4172, "MEAN_ANOMALY": 193.1576, "EPHEMERIS_TYPE": 0, "CLASSIFICATION_TYPE": "U", "NORAD_CAT_ID": 66971, "ELEMENT_SET_NO": 999, "REV_AT_EPOCH": 377, "BSTAR": -0.020102, "MEAN_MOTION_DOT": -0.01972239, "MEAN_MOTION_DDOT": 0}, "tle": {"line1": "1 66971U 25288N   25358.83334491 -.01972239  00000+0 -20102-1 0  9992", "line2": "2 66971  43.0002  93.3383 0001212 283.4172 193.1576 15.67384508  3778"}}, "geometry": {"type": "Point", "coordinates": [-86.56213378452209, -1.9372680593697327]}}, {"type": "Feature", "properties": {"norad_id": 66972, "name": "STARLINK-34846", "group": "last-30-days", "lat": -3.239336537658296, "lon": -85.16523972094289, "alt_km": 370.9318225501638, "timestamp": "2025-12-25T03:55:54.955680+00:00", "meta": {"OBJECT_NAME": "STARLINK-34846", "OBJECT_ID": "2025-288P", "EPOCH": "2025-12-24T20:00:01.000224", "MEAN_MOTION": 15.67399441, "ECCENTRICITY": 0.0001433, "INCLINATION": 43, "RA_OF_ASC_NODE": 93.3333, "ARG_OF_PERICENTER": 287.8505, "MEAN_ANOMALY": 190.6277, "EPHEMERIS_TYPE": 0, "CLASSIFICATION_TYPE": "U", "NORAD_CAT_ID": 66972, "ELEMENT_SET_NO": 999, "REV_AT_EPOCH": 377, "BSTAR": -0.020249, "MEAN_MOTION_DOT": -0.01986143, "MEAN_MOTION_DDOT": 0}, "tle": {"line1": "1 66972U 25288P   25358.83334491 -.01986143  00000+0 -20249-1 0  9994", "line2": "2 66972  43.0000  93.3333 0001433 287.8505 190.6277 15.67399441  3777"}}, "geometry": {"type": "Point", "coordinates": [-85.16523972094289, -3.239336537658296]}}, {"type": "Feature", "properties": {"norad_id": 66973, "name": "STARLINK-35778", "group": "last-30-days", "lat": -4.544040204011236, "lon": -83.75946086201411, "alt_km": 371.0715444846646, "timestamp": "2025-12-25T03:55:54.955689+00:00", "meta": {"OBJECT_NAME": "STARLINK-35778", "OBJECT_ID": "2025-288Q", "EPOCH": "2025-12-24T20:00:01.000224", "MEAN_MOTION": 15.67401496, "ECCENTRICITY": 0.0001347, "INCLINATION": 43, "RA_OF_ASC_NODE": 93.3286, "ARG_OF_PERICENTER": 289.2237, "MEAN_ANOMALY": 191.172, "EPHEMERIS_TYPE": 0, "CLASSIFICATION_TYPE": "U", "NORAD_CAT_ID": 66973, "ELEMENT_SET_NO": 999, "REV_AT_EPOCH": 377, "BSTAR": -0.020291, "MEAN_MOTION_DOT": -0.01989846, "MEAN_MOTION_DDOT": 0}, "tle": {"line1": "1 66973U 25288Q   25358.83334491 -.01989846  00000+0 -20291-1 0  9995", "line2": "2 66973  43.0000  93.3286 0001347 289.2237 191.1720 15.67401496  3770"}}, "geometry": {"type": "Point", "coordinates": [-83.75946086201411, -4.544040204011236]}}, {"type": "Feature", "properties": {"norad_id": 66974, "name": "STARLINK-35780", "group": "last-30-days", "lat": -5.843791559995104, "lon": -82.35100913257386, "alt_km": 371.1746951439063, "timestamp": "2025-12-25T03:55:54.955720+00:00", "meta": {"OBJECT_NAME": "STARLINK-35780", "OBJECT_ID": "2025-288R", "EPOCH": "2025-12-24T20:00:01.000224", "MEAN_MOTION": 15.67399955, "ECCENTRICITY": 0.0001327, "INCLINATION": 43.0002, "RA_OF_ASC_NODE": 93.3239, "ARG_OF_PERICENTER": 288.7248, "MEAN_ANOMALY": 193.587, "EPHEMERIS_TYPE": 0, "CLASSIFICATION_TYPE": "U", "NORAD_CAT_ID": 66974, "ELEMENT_SET_NO": 999, "REV_AT_EPOCH": 377, "BSTAR": -0.020254, "MEAN_MOTION_DOT": -0.01986578, "MEAN_MOTION_DDOT": 0}, "tle": {"line1": "1 66974U 25288R   25358.83334491 -.01986578  00000+0 -20254-1 0  9994", "line2": "2 66974  43.0002  93.3239 0001327 288.7248 193.5870 15.67399955  3773"}}, "geometry": {"type": "Point", "coordinates": [-82.35100913257386, -5.843791559995104]}}, {"type": "Feature", "properties": {"norad_id": 66975, "name": "STARLINK-35777", "group": "last-30-days", "lat": -8.433077606641763, "lon": -79.51269908763065, "alt_km": 371.40370756104585, "timestamp": "2025-12-25T03:55:54.955731+00:00", "meta": {"OBJECT_NAME": "STARLINK-35777", "OBJECT_ID": "2025-288S", "EPOCH": "2025-12-24T20:00:01.000224", "MEAN_MOTION": 15.67402416, "ECCENTRICITY": 0.0001409, "INCLINATION": 43.0006, "RA_OF_ASC_NODE": 93.3134, "ARG_OF_PERICENTER": 288.4229, "MEAN_ANOMALY": 197.7225, "EPHEMERIS_TYPE": 0, "CLASSIFICATION_TYPE": "U", "NORAD_CAT_ID": 66975, "ELEMENT_SET_NO": 999, "REV_AT_EPOCH": 377, "BSTAR": -0.020285, "MEAN_MOTION_DOT": -0.01989488, "MEAN_MOTION_DDOT": 0}, "tle": {"line1": "1 66975U 25288S   25358.83334491 -.01989488  00000+0 -20285-1 0  9992", "line2": "2 66975  43.0006  93.3134 0001409 288.4229 197.7225 15.67402416  3776"}}, "geometry": {"type": "Point", "coordinates": [-79.51269908763065, -8.433077606641763]}}, {"type": "Feature", "properties": {"norad_id": 66976, "name": "STARLINK-35772", "group": "last-30-days", "lat": 42.11406431548407, "lon": -163.50575499517257, "alt_km": 427.394979947474, "timestamp": "2025-12-25T03:55:54.955745+00:00", "meta": {"OBJECT_NAME": "STARLINK-35772", "OBJECT_ID": "2025-288T", "EPOCH": "2025-12-24T20:00:01.000224", "MEAN_MOTION": 15.46062729, "ECCENTRICITY": 0.0001572, "INCLINATION": 43.0002, "RA_OF_ASC_NODE": 94.371, "ARG_OF_PERICENTER": 280.9884, "MEAN_ANOMALY": 138.6949, "EPHEMERIS_TYPE": 0, "CLASSIFICATION_TYPE": "U", "NORAD_CAT_ID": 66976, "ELEMENT_SET_NO": 999, "REV_AT_EPOCH": 377, "BSTAR": -0.049136, "MEAN_MOTION_DOT": -0.0217227, "MEAN_MOTION_DDOT": 0}, "tle": {"line1": "1 66976U 25288T   25358.83334491 -.02172270  00000+0 -49136-1 0  9993", "line2": "2 66976  43.0002  94.3710 0001572 280.9884 138.6949 15.46062729  3772"}}, "geometry": {"type": "Point", "coordinates": [-163.50575499517257, 42.11406431548407]}}, {"type": "Feature", "properties": {"norad_id": 66977, "name": "STARLINK-35770", "group": "last-30-days", "lat": -9.719438611949714, "lon": -78.0794189178425, "alt_km": 371.50110566987496, "timestamp": "2025-12-25T03:55:54.955758+00:00", "meta": {"OBJECT_NAME": "STARLINK-35770", "OBJECT_ID": "2025-288U", "EPOCH": "2025-12-24T20:00:01.000224", "MEAN_MOTION": 15.67397729, "ECCENTRICITY": 0.0001363, "INCLINATION": 42.9999, "RA_OF_ASC_NODE": 93.3094, "ARG_OF_PERICENTER": 288.4773, "MEAN_ANOMALY": 199.5852, "EPHEMERIS_TYPE": 0, "CLASSIFICATION_TYPE": "U", "NORAD_CAT_ID": 66977, "ELEMENT_SET_NO": 999, "REV_AT_EPOCH": 377, "BSTAR": -0.020196, "MEAN_MOTION_DOT": -0.01981435, "MEAN_MOTION_DDOT": 0}, "tle": {"line1": "1 66977U 25288U   25358.83334491 -.01981435  00000+0 -20196-1 0  9999", "line2": "2 66977  42.9999  93.3094 0001363 288.4773 199.5852 15.67397729  3771"}}, "geometry": {"type": "Point", "coordinates": [-78.0794189178425, -9.719438611949714]}}, {"type": "Feature", "properties": {"norad_id": 66978, "name": "STARLINK-35787", "group": "last-30-days", "lat": -13.541253196709786, "lon": -73.70770195536187, "alt_km": 371.77935199181957, "timestamp": "2025-12-25T03:55:54.955768+00:00", "meta": {"OBJECT_NAME": "STARLINK-35787", "OBJECT_ID": "2025-288V", "EPOCH": "2025-12-24T20:00:01.000224", "MEAN_MOTION": 15.6740265, "ECCENTRICITY": 0.0001348, "INCLINATION": 43.0003, "RA_OF_ASC_NODE": 93.2946, "ARG_OF_PERICENTER": 287.6925, "MEAN_ANOMALY": 206.12, "EPHEMERIS_TYPE": 0, "CLASSIFICATION_TYPE": "U", "NORAD_CAT_ID": 66978, "ELEMENT_SET_NO": 999, "REV_AT_EPOCH": 377, "BSTAR": -0.020291, "MEAN_MOTION_DOT": -0.01989957, "MEAN_MOTION_DDOT": 0}, "tle": {"line1": "1 66978U 25288V   25358.83334491 -.01989957  00000+0 -20291-1 0  9993", "line2": "2 66978  43.0003  93.2946 0001348 287.6925 206.1200 15.67402650  3770"}}, "geometry": {"type": "Point", "coordinates": [-73.70770195536187, -13.541253196709786]}}]}